{
  "type": "FeatureCollection",
  "features": [
    {
      "type": "Feature",
      "properties": {
        "norad_id": 33711,
        "name": "FENGYUN 1C DEB",
        "group": "fengyun-1c-debris",
        "lat": 59.57831174417692,
        "lon": 38.03337803853663,
        "alt_km": 840.4978975710819,
        "timestamp": "2025-12-26T11:25:45.480414+00:00",
        "meta_object_name": "FENGYUN 1C DEB",
        "meta_object_id": "1999-025DGY",
        "meta_epoch": "2025-12-26T02:42:45.269280",
        "meta_mean_motion": 14.00938081,
        "meta_eccentricity": 0.0095443,
        "meta_inclination": 99.1805,
        "meta_ra_of_asc_node": 53.6543,
        "meta_arg_of_pericenter": 11.0906,
        "meta_mean_anomaly": 18.2484,
        "meta_ephemeris_type": 0,
        "meta_classification_type": "U",
        "meta_norad_cat_id": 33711,
        "meta_element_set_no": 999,
        "meta_rev_at_epoch": 92119,
        "meta_bstar": 0.00051556,
        "meta_mean_motion_dot": 7.57e-06,
        "meta_mean_motion_ddot": 0,
        "tle_line1": "1 33711U 99025DGY 25360.11302395  .00000757  00000+0  51556-3 0  9993",
        "tle_line2": "2 33711  99.1805  53.6543 0095443  11.0906  18.2484 14.00938081921190"
      },
      "geometry": {
        "type": "Point",
        "coordinates": [
          38.03337803853663,
          59.57831174417692
        ]
      }
    },
    {
      "type": "Feature",
      "properties": {
        "norad_id": 33716,
        "name": "FENGYUN 1C DEB",
        "group": "fengyun-1c-debris",
        "lat": 51.21994081423411,
        "lon": 117.59936384881637,
        "alt_km": 843.5525702593322,
        "timestamp": "2025-12-26T11:25:45.480423+00:00",
        "meta_object_name": "FENGYUN 1C DEB",
        "meta_object_id": "1999-025DHD",
        "meta_epoch": "2025-12-25T13:02:33.559008",
        "meta_mean_motion": 14.32682924,
        "meta_eccentricity": 0.0092901,
        "meta_inclination": 98.8749,
        "meta_ra_of_asc_node": 285.4306,
        "meta_arg_of_pericenter": 320.3619,
        "meta_mean_anomaly": 39.0797,
        "meta_ephemeris_type": 0,
        "meta_classification_type": "U",
        "meta_norad_cat_id": 33716,
        "meta_element_set_no": 999,
        "meta_rev_at_epoch": 65341,
        "meta_bstar": 0.0001958,
        "meta_mean_motion_dot": 5.11e-06,
        "meta_mean_motion_ddot": 0,
        "tle_line1": "1 33716U 99025DHD 25359.54344397  .00000511  00000+0  19580-3 0  9990",
        "tle_line2": "2 33716  98.8749 285.4306 0092901 320.3619  39.0797 14.32682924653415"
      },
      "geometry": {
        "type": "Point",
        "coordinates": [
          117.59936384881637,
          51.21994081423411
        ]
      }
    },
    {
      "type": "Feature",
      "properties": {
        "norad_id": 33718,
        "name": "FENGYUN 1C DEB",
        "group": "fengyun-1c-debris",
        "lat": 80.2258326724912,
        "lon": 6.713697648813201,
        "alt_km": 928.0526084483381,
        "timestamp": "2025-12-26T11:25:45.480432+00:00",
        "meta_object_name": "FENGYUN 1C DEB",
        "meta_object_id": "1999-025DHF",
        "meta_epoch": "2025-12-26T00:46:28.898688",
        "meta_mean_motion": 14.08139715,
        "meta_eccentricity": 0.0098985,
        "meta_inclination": 99.6585,
        "meta_ra_of_asc_node": 87.564,
        "meta_arg_of_pericenter": 282.9924,
        "meta_mean_anomaly": 76.0205,
        "meta_ephemeris_type": 0,
        "meta_classification_type": "U",
        "meta_norad_cat_id": 33718,
        "meta_element_set_no": 999,
        "meta_rev_at_epoch": 69373,
        "meta_bstar": 0.0017093,
        "meta_mean_motion_dot": 2.998e-05,
        "meta_mean_motion_ddot": 0,
        "tle_line1": "1 33718U 99025DHF 25360.03227892  .00002998  00000+0  17093-2 0  9995",
        "tle_line2": "2 33718  99.6585  87.5640 0098985 282.9924  76.0205 14.08139715693738"
      },
      "geometry": {
        "type": "Point",
        "coordinates": [
          6.713697648813201,
          80.2258326724912
        ]
      }
    },
    {
      "type": "Feature",
      "properties": {
        "norad_id": 33719,
        "name": "FENGYUN 1C DEB",
        "group": "fengyun-1c-debris",
        "lat": -0.6631324576949515,
        "lon": 60.50860743691178,
        "alt_km": 800.290782667229,
        "timestamp": "2025-12-26T11:25:45.480441+00:00",
        "meta_object_name": "FENGYUN 1C DEB",
        "meta_object_id": "1999-025DHG",
        "meta_epoch": "2025-12-23T10:57:45.652032",
        "meta_mean_motion": 14.23509629,
        "meta_eccentricity": 0.00301549,
        "meta_inclination": 98.7741,
        "meta_ra_of_asc_node": 57.3958,
        "meta_arg_of_pericenter": 50.0095,
        "meta_mean_anomaly": 324.8076,
        "meta_ephemeris_type": 0,
        "meta_classification_type": "U",
        "meta_norad_cat_id": 33719,
        "meta_element_set_no": 999,
        "meta_rev_at_epoch": 92166,
        "meta_bstar": 0.00068962426,
        "meta_mean_motion_dot": 1.532e-05,
        "meta_mean_motion_ddot": 0,
        "tle_line1": "1 33719U 99025DHG 25357.45677838  .00001532  00000+0  68962-3 0  9992",
        "tle_line2": "2 33719  98.7741  57.3958 0030154  50.0095 324.8076 14.23509629921665"
      },
      "geometry": {
        "type": "Point",
        "coordinates": [
          60.50860743691178,
          -0.6631324576949515
        ]
      }
    },
    {
      "type": "Feature",
      "properties": {
        "norad_id": 33722,
        "name": "FENGYUN 1C DEB",
        "group": "fengyun-1c-debris",
        "lat": 27.747900271431302,
        "lon": -161.0063448567285,
        "alt_km": 760.9420339560293,
        "timestamp": "2025-12-26T11:25:45.480449+00:00",
        "meta_object_name": "FENGYUN 1C DEB",
        "meta_object_id": "1999-025DHK",
        "meta_epoch": "2025-12-23T18:30:20.892960",
        "meta_mean_motion": 14.21389209,
        "meta_eccentricity": 0.01584927,
        "meta_inclination": 98.574,
        "meta_ra_of_asc_node": 11.8133,
        "meta_arg_of_pericenter": 219.6106,
        "meta_mean_anomaly": 139.3406,
        "meta_ephemeris_type": 0,
        "meta_classification_type": "U",
        "meta_norad_cat_id": 33722,
        "meta_element_set_no": 999,
        "meta_rev_at_epoch": 92304,
        "meta_bstar": 0.00051479883,
        "meta_mean_motion_dot": 1.233e-05,
        "meta_mean_motion_ddot": 0,
        "tle_line1": "1 33722U 99025DHK 25357.77107515  .00001233  00000+0  51480-3 0  9996",
        "tle_line2": "2 33722  98.5740  11.8133 0158492 219.6106 139.3406 14.21389209923046"
      },
      "geometry": {
        "type": "Point",
        "coordinates": [
          -161.0063448567285,
          27.747900271431302
        ]
      }
    },
    {
      "type": "Feature",
      "properties": {
        "norad_id": 33723,
        "name": "FENGYUN 1C DEB",
        "group": "fengyun-1c-debris",
        "lat": -40.32194221359478,
        "lon": -106.4994739348153,
        "alt_km": 830.1875671146936,
        "timestamp": "2025-12-26T11:25:45.480458+00:00",
        "meta_object_name": "FENGYUN 1C DEB",
        "meta_object_id": "1999-025DHL",
        "meta_epoch": "2025-12-20T04:59:52.476864",
        "meta_mean_motion": 14.13346573,
        "meta_eccentricity": 0.00986593,
        "meta_inclination": 99.1535,
        "meta_ra_of_asc_node": 74.9552,
        "meta_arg_of_pericenter": 309.2442,
        "meta_mean_anomaly": 78.1701,
        "meta_ephemeris_type": 0,
        "meta_classification_type": "U",
        "meta_norad_cat_id": 33723,
        "meta_element_set_no": 999,
        "meta_rev_at_epoch": 63729,
        "meta_bstar": 0.001358788,
        "meta_mean_motion_dot": 2.624e-05,
        "meta_mean_motion_ddot": 0,
        "tle_line1": "1 33723U 99025DHL 25354.20824626  .00002624  00000+0  13588-2 0  9992",
        "tle_line2": "2 33723  99.1535  74.9552 0098659 309.2442  78.1701 14.13346573637293"
      },
      "geometry": {
        "type": "Point",
        "coordinates": [
          -106.4994739348153,
          -40.32194221359478
        ]
      }
    },
    {
      "type": "Feature",
      "properties": {
        "norad_id": 33724,
        "name": "FENGYUN 1C DEB",
        "group": "fengyun-1c-debris",
        "lat": -80.93518234343395,
        "lon": 118.79236854522317,
        "alt_km": 845.2992512547044,
        "timestamp": "2025-12-26T11:25:45.480467+00:00",
        "meta_object_name": "FENGYUN 1C DEB",
        "meta_object_id": "1999-025DHM",
        "meta_epoch": "2025-12-22T06:40:37.155648",
        "meta_mean_motion": 14.19663244,
        "meta_eccentricity": 0.00279005,
        "meta_inclination": 98.6032,
        "meta_ra_of_asc_node": 6.3154,
        "meta_arg_of_pericenter": 154.2406,
        "meta_mean_anomaly": 269.5567,
        "meta_ephemeris_type": 0,
        "meta_classification_type": "U",
        "meta_norad_cat_id": 33724,
        "meta_element_set_no": 999,
        "meta_rev_at_epoch": 94097,
        "meta_bstar": 0.00040045162,
        "meta_mean_motion_dot": 8.07e-06,
        "meta_mean_motion_ddot": 0,
        "tle_line1": "1 33724U 99025DHM 25356.27820782  .00000807  00000+0  40045-3 0  9991",
        "tle_line2": "2 33724  98.6032   6.3154 0027900 154.2406 269.5567 14.19663244940977"
      },
      "geometry": {
        "type": "Point",
        "coordinates": [
          118.79236854522317,
          -80.93518234343395
        ]
      }
    }
  ]
}